OBJECT_NAME,OBJECT_ID,EPOCH,MEAN_MOTION,ECCENTRICITY,INCLINATION,RA_OF_ASC_NODE,ARG_OF_PERICENTER,MEAN_ANOMALY,EPHEMERIS_TYPE,CLASSIFICATION_TYPE,NORAD_CAT_ID,ELEMENT_SET_NO,REV_AT_EPOCH,BSTAR,MEAN_MOTION_DOT,MEAN_MOTION_DDOT
PERSEUS-M1,2014-033AF,2026-06-19T13:52:58.534464,14.95636995,.00101335,97.9640,114.7493,292.2356,67.7790,0,U,40039,999,65099,.128992E-3,.1374E-4,0
POLYITAN-1,2014-033AJ,2026-06-19T08:04:26.402880,15.33319639,.00087522,98.0941,196.8009,135.2104,224.9844,0,U,40042,999,65392,.50656451E-3,.16256E-3,0
TIGRISAT,2014-033AK,2026-06-19T11:22:28.568064,14.85169819,.00505154,97.7834,320.4330,67.8951,292.7617,0,U,40043,999,64596,.18305756E-3,.1548E-4,0
AEROCUBE 6A,2014-033AM,2026-06-19T08:40:13.564704,14.98126940,.00387163,97.7252,337.2870,10.6828,349.5208,0,U,40045,999,64694,.34190132E-3,.4052E-4,0
AEROCUBE 6B,2014-033AN,2026-06-19T08:40:32.046528,14.99587127,.00381505,97.7249,337.0821,1.8619,358.2739,0,U,40046,999,64708,.32792521E-3,.4034E-4,0
CANX-4,2014-034C,2026-06-19T15:37:48.940896,14.81268280,.0012983,98.3119,46.0548,9.3368,350.8082,0,U,40055,999,64489,.91608E-4,.657E-5,0
CANX-5,2014-034D,2026-06-19T15:35:31.089696,14.81285583,.0012982,98.3120,46.0968,9.5671,350.5785,0,U,40056,999,63570,.92982E-4,.668E-5,0
UKUBE-1,2014-037F,2026-06-19T13:09:25.596288,15.13585482,.00027498,98.4239,174.0682,127.9455,232.2022,0,U,40074,999,64891,.3948138E-3,.7009E-4,0
BRITE-PL2 (HEWELIUSZ),2014-049B,2026-06-19T13:58:49.822176,14.94600826,.00153645,97.9101,282.6009,101.3495,258.9452,0,U,40119,999,64180,.15857707E-3,.166E-4,0
AEROCUBE 5C,2015-058B,2026-06-19T12:25:26.365728,14.91461880,.01308571,64.7671,255.3406,62.3484,299.0840,0,U,40965,999,36600,.15534813E-3,.1654E-4,0
AEROCUBE 7,2015-058C,2026-06-19T13:46:51.154752,14.95736710,.01205945,64.7613,237.3394,60.7422,300.5685,0,U,40966,999,36631,.19296274E-3,.231E-4,0
FOX-1A (AO-85),2015-058D,2026-06-19T18:24:49.502304,14.90978964,.013057,64.7745,270.9655,55.6095,305.7282,0,U,40967,999,11395,.16076E-3,.1694E-4,0
SINOD-D 1,2015-058E,2026-06-19T13:14:41.510112,14.95917149,.01191973,64.7746,251.5076,52.1415,309.0411,0,U,40968,999,11701,.19692009E-3,.2366E-4,0
SNAP-3 ALICE,2015-058G,2026-06-19T05:23:44.579328,15.60483812,.00275805,64.7499,96.8866,11.6673,348.5106,0,U,40970,999,11720,.13970856E-2,.119396E-2,0
LMRST-SAT,2015-058H,2026-06-19T17:21:24.570720,14.90598216,.0132199,64.7751,267.4452,57.6406,303.7422,0,U,40971,999,11393,.14753E-3,.1529E-4,0
SNAP-3 EDDIE,2015-058J,2026-06-19T11:15:50.307264,15.61823790,.002723,64.7421,86.7482,15.2972,344.8991,0,U,40972,999,11938,.13634033E-2,.122718E-2,0
PROPCUBE 3,2015-058K,2026-06-19T13:14:33.844704,14.94267025,.0124167,64.7678,245.1481,58.9778,302.3459,0,U,40973,999,11515,.17215615E-3,.1974E-4,0
BISONSAT,2015-058L,2026-06-19T09:47:03.494976,15.16233657,.00792866,64.7582,166.4651,46.3425,314.4236,0,U,40974,999,11595,.531874E-3,.11E-3,0
SNAP-3 JIMI,2015-058M,2026-06-19T12:27:30.145824,15.02313920,.01063013,64.7632,212.3943,54.4226,306.6741,0,U,40975,999,11457,.24913422E-3,.3541E-4,0
PROPCUBE 1 (FLORA),2015-058N,2026-06-19T16:19:51.782016,14.89230682,.013087,64.7742,287.5085,59.9684,301.4335,0,U,40976,999,11663,.16026E-3,.1607E-4,0
SINOD-D 3,2015-058P,2026-06-19T17:13:31.241280,14.94028280,.01194,64.7726,267.9171,57.1285,304.1252,0,U,40977,999,11513,.20631E-3,.2359E-4,0
HORYU-4,2016-012D,2026-06-19T20:59:04.248672,15.98255444,.0006394,30.9842,59.2608,289.3268,70.6702,0,U,41340,999,57124,.95819E-3,.470986E-2,.86172E-4
RAVAN,2016-067B,2026-06-19T16:22:41.328192,15.54886369,.0004008,97.9880,60.5420,24.2020,335.9420,0,U,41849,999,52808,.6551E-3,.43817E-3,0
CELTEE 1,2016-067C,2026-06-19T13:51:35.582688,15.19701017,.00010751,98.0668,37.3072,128.9694,231.1635,0,U,41850,999,52624,.20662878E-3,.4334E-4,0
OPTICUBE 04,2016-067D,2026-06-19T12:45:29.642976,15.09667878,.00169524,98.0697,22.9376,108.2922,252.0152,0,U,41851,999,52552,.12166203E-3,.1893E-4,0
AEROCUBE 8D,2016-067E,2026-06-19T14:01:21.992448,15.24424989,.00048385,98.0674,40.9374,117.5198,242.6529,0,U,41852,999,52643,.25539429E-3,.6185E-4,0
AEROCUBE 8C,2016-067F,2026-06-19T02:00:44.048160,15.24668047,.00065294,98.0544,37.6237,63.7296,296.4610,0,U,41853,999,52635,.23976403E-3,.5845E-4,0
CORVUS BC2,2017-042X,2026-06-19T09:17:20.016672,15.06310794,.00145167,97.4075,331.6508,103.5919,256.6926,0,U,42846,999,48739,.21163072E-3,.3058E-4,0
CORVUS BC1,2017-042Y,2026-06-19T12:20:30.494112,15.06479118,.00134969,97.4109,332.5888,82.2066,278.0693,0,U,42847,999,48744,.17415857E-3,.2516E-4,0
MAKERSAT 0,2017-073D,2026-06-19T15:52:54.096672,15.32165805,.0104966,97.4616,53.1997,264.0130,94.9141,0,U,43016,999,46684,.37211E-3,.13677E-3,0
